AQUA                    
1 27424U 02022A   23165.41316185  .00000944  00000+0  21519-3 0  9998
2 27424  98.2872 109.8367 0001529 108.0199  43.1287 14.58099652122959
CZ-4B R/B               
1 27432U 02024C   23164.88217177  .00000052  00000+0  50693-4 0  9996
2 27432  99.0226 199.4184 0049903 336.9643 196.3549 14.14216652 87906
MIDORI II (ADEOS-II)    
1 27597U 02056A   23164.81271884  .00000294  00000+0  13651-3 0  9991
2 27597  98.6485 109.1300 0002035  64.1534 295.9857 14.27919473 67532
H-2A R/B                
1 27601U 02056E   23165.02264962  .00000288  00000+0  11855-3 0  9997
2 27601  98.1915 156.4097 0070370 262.5929 133.4133 14.32376073 70916
CZ-4B R/B               
1 28059U 03049C   23164.64561563  .00000505  00000+0  13158-3 0  9992
2 28059  98.5604 112.9839 0050592  45.2312 315.2982 14.53185920 41260
CZ-2C R/B               
1 28222U 04012C   23164.98095324  .00006215  00000+0  30709-3 0  9994
2 28222  97.8009 159.3855 0038637 249.7797 109.9279 15.17585359 50987
SL-16 R/B               
1 28353U 04021B   23165.40947188  .00000366  00000+0  21644-3 0  9990
2 28353  70.9984 169.0902 0003568 133.5651 226.5768 14.14327780981532
CZ-4B R/B               
1 28415U 04035C   23165.05641252  .00004292  00000+0  25475-3 0  9996
2 28415  97.4687 202.2434 0046285 217.3192 142.4820 15.10952620 28147
CZ-2C R/B               
1 28480U 04046B   23165.13203592  .00000131  00000+0  65034-4 0  9994
2 28480  98.1109 130.2699 0140248 230.8880 127.9763 14.26039428965992
ARIANE 5 R/B            
1 28499U 04049H   23165.32370211  .00000698  00000+0  90933-4 0  9995
2 28499  98.1358 291.3090 0089760 346.2323  41.2454 14.81288658997674
CZ-2D R/B               
1 28738U 05024B   23164.89750089  .00006837  00000+0  33699-3 0  9997
2 28738  97.3533 166.5083 0010558  12.9874 347.1630 15.18204832986493
SUZAKU (ASTRO-EII)      
1 28773U 05025A   23165.10389107  .00011742  00000+0  40833-3 0  9990
2 28773  31.3840  86.8898 0002355  82.3890 277.7028 15.28464848990225
ALOS (DAICHI)           
1 28931U 06002A   23165.30929518  .00001117  00000+0  22104-3 0  9996
2 28931  97.9879 122.9090 0000815 112.1030 248.0260 14.64189885927340
H-2A R/B                
1 28932U 06002B   23164.17817609  .00003306  00000+0  27930-3 0  9992
2 28932  98.2410 230.8808 0081583 346.6487  13.2573 14.96314397943927
RESURS-DK 1             
1 29228U 06021A   23165.38549299  .00002135  00000+0  15766-3 0  9996
2 29228  69.9360 285.7035 0007092 240.8035 119.2418 15.04863297936827
GENESIS 1               
1 29252U 06029A   23164.86133584  .00009795  00000+0  37479-3 0  9993
2 29252  64.5203 319.9270 0025906 213.3025 146.6474 15.26758118934014
CZ-4B R/B               
1 29507U 06046C   23165.05530587  .00003695  00000+0  26582-3 0  9997
2 29507  97.6855 198.2930 0044734  91.7144 268.9206 15.04045037909229
CZ-2C R/B               
1 31114U 07010B   23165.44066053  .00000151  00000+0  88966-4 0  9990
2 31114  98.2799 319.2322 0058777 323.4787  36.2389 14.19577933837925
COSMO-SKYMED 1          
1 31598U 07023A   23165.46102295  .00000602  00000+0  82092-4 0  9996
2 31598  97.8882 348.9752 0001360 103.0602 257.0763 14.82168224866581
GENESIS 2               
1 31789U 07028A   23164.88512945  .00007767  00000+0  29984-3 0  9994
2 31789  64.4955   4.0276 0057357 261.6828  97.7793 15.25459667880909
COSMOS 2428             
1 31792U 07029A   23165.41712873 -.00000109  00000+0 -32817-4 0  9996
2 31792  70.9291 140.5975 0008900 242.4567 117.5650 14.12544458823040
SL-16 R/B               
1 31793U 07029B   23165.09753655  .00000187  00000+0  12248-3 0  9993
2 31793  70.9759 113.0938 0001814 277.6594  93.4358 14.14540936824093
KORONAS-FOTON           
1 33504U 09003A   23165.17156260  .00004155  00000+0  18792-3 0  9996
2 33504  82.4400 214.3553 0019126  94.9357 265.4062 15.20478260792989
CZ-2C R/B               
1 37731U 11030B   23165.18209525  .00001521  00000+0  22187-3 0  9996
2 37731  97.7134 139.1782 0057959 358.2864  12.0788 14.76066502642382
H-2A R/B                
1 38341U 12025E   23164.63829351  .00001927  00000+0  22178-3 0  9993
2 38341  98.4570  48.1985 0052518 324.8463  34.9289 14.86115907599268
CUSAT 2 & FALCON 9 R/B  
1 39271U 13055G   23165.36624476  .00040030  00000+0  70662-3 0  9991
2 39271  80.9472 150.8550 0444517  68.5756 296.2259 14.84646854510023
SHIJIAN-16 (SJ-16)      
1 39358U 13057A   23165.51130265  .00001660  00000+0  18702-3 0  9997
2 39358  74.9738 269.0197 0018793   5.7308 354.4088 14.87175947522782
CZ-2C R/B               
1 39364U 13059B   23164.71222298  .00021624  00000+0  48210-3 0  9994
2 39364  97.1049 211.8136 0034941 110.0619 250.4396 15.42932072535690
SL-4 R/B                
1 39679U 14021B   23164.76080998  .00005556  00000+0  24824-3 0  9998
2 39679  51.6135  68.8725 0154081 137.9568 223.3350 15.12927123503729
ALOS-2                  
1 39766U 14029A   23165.51114511  .00001788  00000+0  24622-3 0  9995
2 39766  97.9215 262.4425 0001588  97.4480 262.6912 14.79474058489160
SL-27 R/B               
1 40354U 14084B   23164.85817023  .00013354  00000+0  21360-3 0  9993
2 40354  74.7341 279.3481 0027989 277.7744  82.0297 15.52671570476498
YAOGAN-29               
1 41038U 15069A   23165.47130590  .00000566  00000+0  79385-4 0  9995
2 41038  98.0617 172.6420 0001971  59.2951 300.8455 14.81345732407879
ASTRO-H (HITOMI)        
1 41337U 16012A   23164.78391286  .00002339  00000+0  17176-3 0  9999
2 41337  31.0041 283.7309 0011522  64.9496 295.2335 15.01110667401428
HXMT (HUIYAN)           
1 42758U 17034A   23165.45325869  .00003657  00000+0  22251-3 0  9995
2 42758  43.0138 154.0647 0005912 336.9579  23.1001 15.11908261330954
CZ-2C R/B               
1 43521U 18054D   23164.98721190  .00006259  00000+0  27975-3 0  9990
2 43521  35.1514 273.5918 0070075  53.6643 307.0516 15.18480877274551
AEOLUS                  
1 43600U 18066A   23165.28900578  .00134831  81329-5  51358-3 0  9993
2 43600  96.7129 170.6948 0010969  97.6576 262.5943 15.87479347278507
SAOCOM 1A               
1 43641U 18076A   23165.46938859  .00000522  00000+0  72166-4 0  9993
2 43641  97.8886 351.9929 0001414  88.4648 271.6727 14.82148157253353
H-2A R/B                
1 43682U 18084L   23165.04599798  .00004878  00000+0  30849-3 0  9995
2 43682  98.8941 188.6790 0051773 152.8371 207.5579 15.08505884253743
SAOCOM 1B               
1 46265U 20059A   23165.50058338  .00000549  00000+0  75546-4 0  9996
2 46265  97.8891 351.1003 0001377  90.8241 269.3130 14.82153799150753
CSS (TIANHE)            
1 48274U 21035A   23165.41220080  .00014729  00000+0  18034-3 0  9991
2 48274  41.4730 172.7365 0002070 347.9716  12.1073 15.60065867121409
2022-019U               
1 51842U 22019U   23165.48804178  .00015896  00000+0  45942-3 0  9996
2 51842  97.5294 252.2181 0053992 353.2495   6.8014 15.34248233 72056
CZ-2C R/B               
1 52794U 22058K   23164.61908607  .00006344  00000+0  31413-3 0  9998
2 52794  50.1708 242.9156 0094527  90.3604 270.8182 15.15189803 56952
CZ-2C R/B               
1 53131U 22082D   23164.78404105  .00024252  00000+0  43984-3 0  9997
2 53131  97.3453 179.8293 0034735 247.1237 112.6346 15.48914558 51248
